[{"OBJECT_NAME":"STARLINK-33999","OBJECT_ID":"2025-093X","EPOCH":"2026-03-09T08:42:12.212640","MEAN_MOTION":15.27611111,"ECCENTRICITY":0.00033444,"INCLINATION":43.0059,"RA_OF_ASC_NODE":79.5866,"ARG_OF_PERICENTER":295.8135,"MEAN_ANOMALY":64.2372,"EPHEMERIS_TYPE":0,"CLASSIFICATION_TYPE":"U","NORAD_CAT_ID":63857,"ELEMENT_SET_NO":999,"REV_AT_EPOCH":4792,"BSTAR":0.00096055704,"MEAN_MOTION_DOT":0.00026292,"MEAN_MOTION_DDOT":0},{"OBJECT_NAME":"TRANSPORTER-1 OBJECT Z","OBJECT_ID":"2021-006Z","EPOCH":"2026-03-09T22:55:57.522432","MEAN_MOTION":15.30965056,"ECCENTRICITY":0.00100878,"INCLINATION":97.2377,"RA_OF_ASC_NODE":113.4736,"ARG_OF_PERICENTER":179.6869,"MEAN_ANOMALY":180.438,"EPHEMERIS_TYPE":0,"CLASSIFICATION_TYPE":"U","NORAD_CAT_ID":47436,"ELEMENT_SET_NO":999,"REV_AT_EPOCH":28420,"BSTAR":0.00024088983,"MEAN_MOTION_DOT":7.143e-5,"MEAN_MOTION_DDOT":0}]
